NORAD_CAT_ID,OBJECT_NAME,OBJECT_TYPE,EPOCH,MEAN_MOTION,ECCENTRICITY,INCLINATION,RA_OF_ASC_NODE,ARG_OF_PERICENTER,MEAN_ANOMALY,BSTAR,MEAN_MOTION_DOT,MEAN_MOTION_DDOT,TLE_LINE0,TLE_LINE1,TLE_LINE2,SEMIMAJOR_AXIS,PERIOD,APOGEE,PERIGEE,DECAYED
53905.0,STARLINK-5003,PAYLOAD,2024-05-21 20:46:40,15.08835125,0.0001249,53.2188,22.9356,119.7097,240.4019,0.00022641,3.317e-05,0.0,0 STARLINK-5003,1 53905U 22119V   24142.86575183  .00003317  00000-0  22641-3 0  9995,2 53905  53.2188  22.9356 0001249 119.7097 240.4019 15.08835125 92243,6917.895,95.438,540.624,538.896,0.0
53905.0,STARLINK-5003,PAYLOAD,2024-05-21 22:22:03,15.08834878,0.0001022,53.219,22.6376,107.1123,252.9981,0.00019871,2.876e-05,0.0,0 STARLINK-5003,1 53905U 22119V   24142.93199044  .00002876  00000-0  19871-3 0  9991,2 53905  53.2190  22.6376 0001022 107.1123 252.9981 15.08834878 92672,6917.896,95.438,540.468,539.054,0.0
53905.0,STARLINK-5003,PAYLOAD,2024-05-22 01:32:50,15.08841825,0.0001064,53.2182,22.0422,114.9316,245.1787,0.00024131,3.555e-05,0.0,0 STARLINK-5003,1 53905U 22119V   24143.06446841  .00003555  00000-0  24131-3 0  9996,2 53905  53.2182  22.0422 0001064 114.9316 245.1787 15.08841825 92695,6917.875,95.437,540.476,539.004,0.0
53905.0,STARLINK-5003,PAYLOAD,2024-05-22 20:37:27,15.08855009,0.0001186,53.2192,18.4711,128.5935,231.5163,-7.1165e-05,-1.421e-05,0.0,0 STARLINK-5003,1 53905U 22119V   24143.85934293 -.00001421  00000-0 -71165-4 0  9998,2 53905  53.2192  18.4711 0001186 128.5935 231.5163 15.08855009 92392,6917.835,95.437,540.52,538.879,0.0
53905.0,STARLINK-5003,PAYLOAD,2024-05-22 22:12:50,15.08855443,0.0001236,53.2196,18.1738,127.4373,232.6732,-6.2199e-05,-1.278e-05,0.0,0 STARLINK-5003,1 53905U 22119V   24143.92558195 -.00001278  00000-0 -62199-4 0  9996,2 53905  53.2196  18.1738 0001236 127.4373 232.6732 15.08855443 92826,6917.833,95.437,540.553,538.843,0.0
53905.0,STARLINK-5003,PAYLOAD,2024-05-23 18:52:51,15.0884496,0.0001028,53.2196,14.3126,95.2667,264.8443,-3.1674e-06,-3.38e-06,0.0,0 STARLINK-5003,1 53905U 22119V   24144.78670784 -.00000338  00000-0 -31674-5 0  9991,2 53905  53.2196  14.3126 0001028  95.2667 264.8443 15.08844960 92538,6917.865,95.437,540.441,539.019,0.0
53905.0,STARLINK-5003,PAYLOAD,2024-05-23 20:28:14,15.08842218,0.000104,53.2187,14.0095,87.6786,272.4325,7.856e-05,9.63e-06,0.0,0 STARLINK-5003,1 53905U 22119V   24144.85294687  .00000963  00000-0  78560-4 0  9999,2 53905  53.2187  14.0095 0001040  87.6786 272.4325 15.08842218 92966,6917.874,95.437,540.458,539.019,0.0
53905.0,STARLINK-5003,PAYLOAD,2024-05-24 01:14:23,15.08847695,0.0001074,53.2193,13.122,97.9036,262.2078,6.2668e-05,7.1e-06,0.0,0 STARLINK-5003,1 53905U 22119V   24145.05166297  .00000710  00000-0  62668-4 0  9999,2 53905  53.2193  13.1220 0001074  97.9036 262.2078 15.08847695 92991,6917.857,95.437,540.465,538.979,0.0
53905.0,STARLINK-5003,PAYLOAD,2024-05-24 20:19:01,15.08844498,0.0001155,53.2192,9.5514,74.3882,285.7238,2.1145e-05,4.9e-07,0.0,0 STARLINK-5003,1 53905U 22119V   24145.84654714  .00000049  00000-0  21145-4 0  9992,2 53905  53.2192   9.5514 0001155  74.3882 285.7238 15.08844498 92696,6917.867,95.437,540.531,538.933,0.0
53905.0,STARLINK-5003,PAYLOAD,2024-05-24 21:54:24,15.08848467,7.72e-05,53.2185,9.2617,108.068,252.0396,2.7826e-05,1.55e-06,0.0,0 STARLINK-5003,1 53905U 22119V   24145.91278339  .00000155  00000-0  27826-4 0  9995,2 53905  53.2185   9.2617 0000772 108.0680 252.0396 15.08848467 93125,6917.855,95.437,540.254,539.185,0.0
53905.0,STARLINK-5003,PAYLOAD,2024-05-25 07:26:43,15.08836189,8.49e-05,53.218,7.473,77.6487,282.46,-5.3296e-05,-1.136e-05,0.0,0 STARLINK-5003,1 53905U 22119V   24146.31023146 -.00001136  00000-0 -53296-4 0  9996,2 53905  53.2180   7.4730 0000849  77.6487 282.4600 15.08836189 92769,6917.892,95.438,540.344,539.17,0.0
53905.0,STARLINK-5003,PAYLOAD,2024-05-25 21:45:14,15.08815093,0.000148,53.2188,4.8089,128.6915,231.421,-0.00021219,-3.661e-05,0.0,0 STARLINK-5003,1 53905U 22119V   24146.90641669 -.00003661  00000-0 -21219-3 0  9991,2 53905  53.2188   4.8089 0001480 128.6915 231.4210 15.08815093 92852,6917.957,95.439,540.845,538.798,0.0
53905.0,STARLINK-5003,PAYLOAD,2024-05-25 23:20:41,15.08761894,0.0001327,53.2185,4.5112,117.5027,242.61,-0.00067322,-0.00010963,0.0,0 STARLINK-5003,1 53905U 22119V   24146.97270118 -.00010963  00000-0 -67322-3 0  9993,2 53905  53.2185   4.5112 0001327 117.5027 242.6100 15.08761894 92866,6918.119,95.442,540.902,539.066,0.0
53905.0,STARLINK-5003,PAYLOAD,2024-05-26 20:00:36,15.08846785,0.0001028,53.2182,0.6447,91.7193,268.3917,8.975e-05,1.141e-05,0.0,0 STARLINK-5003,1 53905U 22119V   24147.83375139  .00001141  00000-0  89750-4 0  9994,2 53905  53.2182   0.6447 0001028  91.7193 268.3917 15.08846785 92994,6917.86,95.437,540.436,539.013,0.0
53905.0,STARLINK-5003,PAYLOAD,2024-05-26 21:35:58,15.08850527,0.000113,53.2189,0.3474,115.9428,244.168,0.0001186,1.601e-05,0.0,0 STARLINK-5003,1 53905U 22119V   24147.89998712  .00001601  00000-0  11860-3 0  9995,2 53905  53.2189   0.3474 0001130 115.9428 244.1680 15.08850527 93429,6917.848,95.437,540.495,538.931,0.0
53905.0,STARLINK-5003,PAYLOAD,2024-05-27 07:08:18,15.08839639,9.98e-05,53.2182,358.5526,86.0544,274.0562,-5.7647e-05,-1.205e-05,0.0,0 STARLINK-5003,1 53905U 22119V   24148.29743639 -.00001205  00000-0 -57647-4 0  9992,2 53905  53.2182 358.5526 0000998  86.0544 274.0562 15.08839639 93068,6917.881,95.438,540.437,539.056,0.0
53905.0,STARLINK-5003,PAYLOAD,2024-05-27 21:26:46,15.08842221,8.97e-05,53.2181,355.879,98.253,261.8564,0.00013813,1.911e-05,0.0,0 STARLINK-5003,1 53905U 22119V   24148.89359156  .00001911  00000-0  13813-3 0  9993,2 53905  53.2181 355.8790 0000897  98.2530 261.8564 15.08842221 93571,6917.874,95.437,540.359,539.118,0.0
53905.0,STARLINK-5003,PAYLOAD,2024-05-27 23:02:09,15.08843624,9.11e-05,53.2181,355.581,98.1007,262.0089,0.00015188,2.13e-05,0.0,0 STARLINK-5003,1 53905U 22119V   24148.95983060  .00002130  00000-0  15188-3 0  9998,2 53905  53.2181 355.5810 0000911  98.1007 262.0089 15.08843624 93164,6917.869,95.437,540.365,539.104,0.0
53905.0,STARLINK-5003,PAYLOAD,2024-05-28 06:59:04,15.08846558,8.77e-05,53.218,354.094,85.5246,274.5846,0.00016379,2.32e-05,0.0,0 STARLINK-5003,1 53905U 22119V   24149.29102843  .00002320  00000-0  16379-3 0  9992,2 53905  53.2180 354.0940 0000877  85.5246 274.5846 15.08846558 93637,6917.86,95.437,540.332,539.119,0.0
53905.0,STARLINK-5003,PAYLOAD,2024-05-28 21:17:33,15.08847274,9.73e-05,53.2182,351.4156,87.5985,272.5118,3.6831e-05,2.99e-06,0.0,0 STARLINK-5003,1 53905U 22119V   24149.88719023  .00000299  00000-0  36831-4 0  9990,2 53905  53.2182 351.4156 0000973  87.5985 272.5118 15.08847274 93724,6917.858,95.437,540.396,539.05,0.0
53905.0,STARLINK-5003,PAYLOAD,2024-05-28 22:52:56,15.08848273,9.81e-05,53.2183,351.1166,94.3589,265.7515,4.3785e-05,4.09e-06,0.0,0 STARLINK-5003,1 53905U 22119V   24149.95342873  .00000409  00000-0  43785-4 0  9992,2 53905  53.2183 351.1166 0000981  94.3589 265.7515 15.08848273 93734,6917.855,95.437,540.399,539.041,0.0
53905.0,STARLINK-5003,PAYLOAD,2024-05-29 19:32:57,15.08843727,0.0001243,53.2194,347.247,63.5745,296.5375,-2.2746e-05,-6.5e-06,0.0,0 STARLINK-5003,1 53905U 22119V   24150.81455446 -.00000650  00000-0 -22746-4 0  9994,2 53905  53.2194 347.2470 0001243  63.5745 296.5375 15.08843727 93447,6917.869,95.437,540.594,538.874,0.0
53905.0,STARLINK-5003,PAYLOAD,2024-05-30 19:23:43,15.08852979,0.0001043,53.2185,342.7879,71.4562,288.6544,8.3941e-05,1.049e-05,0.0,0 STARLINK-5003,1 53905U 22119V   24151.80814384  .00001049  00000-0  83941-4 0  9999,2 53905  53.2185 342.7879 0001043  71.4562 288.6544 15.08852979 93598,6917.841,95.437,540.427,538.984,0.0
53905.0,STARLINK-5003,PAYLOAD,2024-05-30 22:34:29,15.08853089,9.41e-05,53.218,342.196,86.62,273.49,9.2008e-05,1.177e-05,0.0,0 STARLINK-5003,1 53905U 22119V   24151.94062268  .00001177  00000-0  92008-4 0  9996,2 53905  53.2180 342.1960 0000941  86.6200 273.4900 15.08853089 94032,6917.84,95.437,540.356,539.054,0.0
53905.0,STARLINK-5003,PAYLOAD,2024-05-31 19:14:31,15.08843603,7.95e-05,53.2172,338.3289,110.8761,249.2316,1.2002e-05,-9.7e-07,0.0,0 STARLINK-5003,1 53905U 22119V   24152.80174927 -.00000097  00000-0  12002-4 0  9995,2 53905  53.2172 338.3289 0000795 110.8761 249.2316 15.08843603 93743,6917.869,95.437,540.284,539.184,0.0
53905.0,STARLINK-5003,PAYLOAD,2024-06-01 04:46:49,15.08844244,7.95e-05,53.2173,336.5448,108.0145,252.0934,1.8348e-05,4e-08,0.0,0 STARLINK-5003,1 53905U 22119V   24153.19918801  .00000004  00000-0  18348-4 0  9991,2 53905  53.2173 336.5448 0000795 108.0145 252.0934 15.08844244 94220,6917.867,95.437,540.282,539.182,0.0
53905.0,STARLINK-5003,PAYLOAD,2024-06-01 19:05:18,15.08839248,0.0001076,53.2188,333.8765,98.6835,261.4279,-5.417e-05,-1.15e-05,0.0,0 STARLINK-5003,1 53905U 22119V   24153.79535715 -.00001150  00000-0 -54170-4 0  9994,2 53905  53.2188 333.8765 0001076  98.6835 261.4279 15.08839248 93897,6917.883,95.438,540.492,539.003,0.0
53905.0,STARLINK-5003,PAYLOAD,2024-06-02 10:59:10,15.08832383,9.96e-05,53.2183,330.9,92.397,267.7136,6.9053e-05,8.11e-06,0.0,0 STARLINK-5003,1 53905U 22119V   24154.45775972  .00000811  00000-0  69053-4 0  9996,2 53905  53.2183 330.9000 0000996  92.3970 267.7136 15.08832383 94416,6917.904,95.438,540.458,539.08,0.0
53905.0,STARLINK-5003,PAYLOAD,2024-06-03 04:28:24,15.08841903,0.0001029,53.2187,327.6294,91.8721,268.2389,6.3732e-05,7.27e-06,0.0,0 STARLINK-5003,1 53905U 22119V   24155.18639665  .00000727  00000-0  63732-4 0  9999,2 53905  53.2187 327.6294 0001029  91.8721 268.2389 15.08841903 94104,6917.875,95.437,540.451,539.028,0.0
53905.0,STARLINK-5003,PAYLOAD,2024-06-03 20:22:15,15.08846074,0.0001039,53.2181,324.6551,85.5965,274.5146,0.00013735,1.899e-05,0.0,0 STARLINK-5003,1 53905U 22119V   24155.84879332  .00001899  00000-0  13735-3 0  9997,2 53905  53.2181 324.6551 0001039  85.5965 274.5146 15.08846074 94624,6917.862,95.437,540.446,539.008,0.0
